{"fetched_at":"2026-03-30T06:02:59Z","count":15439,"tles":[{"name":"STARLINK-1967","line1":"1 47568U 21009W   26087.85350475  .00104446  00000+0  97788-3 0  9992","line2":"2 47568  53.0428 270.9161 0002076 170.9242 189.1811 15.66446759284039","category":"Starlink"}]}